ADRAS-J                 
1 58992U 24034A   24249.86699671  .00008442  00000+0  76077-3 0  9996
2 58992  98.2192 226.6362 0044428 141.6344 277.1433 14.95083142 29913
